GORIZONT 25             
1 21922U 92017A   13023.91162448 -.00000265  00000-0  10000-3 0  7254
2 21922  13.7594  28.2223 0028114 345.7354  14.2321  0.99848913 76099
GORIZONT 26             
1 22041U 92043A   13024.03312003  .00000011  00000-0  10000-3 0  3562
2 22041  13.6839  29.6774 0030695 135.2919 225.0064  0.99239936 74942
GORIZONT 27             
1 22245U 92082A   13024.45546838  .00000000  00000-0  10000-3 0  8600
2 22245  13.6021  30.2893 0011380 267.1497  92.7735  1.00148715 78144
GORIZONT 28             
1 22880U 93069A   13024.41638934 -.00000322  00000-0  10000-3 0  7412
2 22880  13.2501  33.5340 0035111  36.0293 324.2696  0.99653030 70392
GORIZONT 29             
1 22907U 93072A   13022.12755393  .00000072  00000-0  10000-3 0   695
2 22907  13.2102  33.4745 0009533 244.1198 115.8215  1.00123372 70195
GORIZONT 30             
1 23108U 94030A   13020.38086342 -.00000317  00000-0  10000-3 0  8760
2 23108  13.0873  34.5776 0002137  64.3912 295.6621  1.00236297 68407
GORIZONT 31             
1 23775U 96005A   13022.73315403  .00000013  00000-0  10000-3 0  3664
2 23775  12.2211  40.0086 0020472  98.6205 261.6564  0.99895893 62174
GORIZONT 32             
1 23880U 96034A   13024.12415698 -.00000290  00000-0  10000-3 0  1829
2 23880  12.0971  40.8052 0007981 252.6013 173.6656  1.00165983 61033
GORIZONT 33             
1 26372U 00029A   13023.19811019  .00000101  00000-0  10000-3 0   290
2 26372   9.5536  49.6481 0002539   9.5508 350.4996  1.00362678 46366
